INMARSAT 4-F2 (SOUTHPA*)
1 28899U 05044A   26176.75476543 -.00000255  00000+0  00000+0 0  9993
2 28899   5.1061  43.6907 0003295  43.1569 242.2451  1.00272247 75600
GSAT-8 (GAGAN/PRN 127)  
1 37605U 11022A   26176.74975894  .00000093  00000+0  00000+0 0  9992
2 37605   2.1533  81.7288 0001664 186.9561 330.1787  1.00272636 53301
LUCH 5A (SDCM/PRN 140)  
1 37951U 11074B   26176.63453922 -.00000048  00000+0  00000+0 0  9995
2 37951   8.7753  73.6852 0002664  29.9506 205.4938  1.00272193 53135
SES-5 (EGNOS/PRN 136)   
1 38652U 12036A   26176.52586043  .00000044  00000+0  00000+0 0  9997
2 38652   0.0440 319.4688 0002254 132.5340  15.9396  1.00270102 44547
GSAT-10 (GAGAN/PRN 128) 
1 38779U 12051B   26176.68398682 -.00000155  00000+0  00000+0 0  9995
2 38779   0.0610 259.6299 0008138 190.7160 152.7319  1.00272150 50189
LUCH 5B (SDCM/PRN 125)  
1 38977U 12061A   26176.83102023 -.00000136  00000+0  00000+0 0  9994
2 38977  10.5026  49.7975 0002459 136.5618  10.5144  1.00272668 49696
ASTRA 5B (EGNOS/PRN 123)
1 39617U 14011B   26176.81482462  .00000148  00000+0  00000+0 0  9991
2 39617   0.0542 322.9374 0002206 114.4652 153.3488  1.00272025 44753
LUCH 5V (SDCM/PRN 141)  
1 39727U 14023A   26176.75758149 -.00000263  00000+0  00000+0 0  9996
2 39727   5.1544  69.6639 0002402  47.9726 163.7407  1.00272155 44448
GSAT-15 (GAGAN/PRN 139) 
1 41028U 15065A   26176.75732148 -.00000247  00000+0  00000+0 0  9993
2 41028   0.0505 264.0159 0004589 171.6067 204.4272  1.00271415 38887
EUTELSAT 117 WEST B (W*)
1 41589U 16038B   26176.35910432 -.00000002  00000+0  00000+0 0  9995
2 41589   0.0126 150.0316 0000390  73.9936  61.7629  1.00271272 36746
SES-15 (WAAS/PRN 133)   
1 42709U 17026A   26175.50131078  .00000068  00000+0  00000+0 0  9996
2 42709   0.0193 335.4736 0000659  95.5096 252.9752  1.00268280  7503
QZS-2 (QZSS/PRN 194)    
1 42738U 17028A   26175.48562404 -.00000157  00000+0  00000+0 0  9998
2 42738  39.4163 243.0474 0759303 269.3393  77.0374  1.00282000  7691
QZS-3 (QZSS/PRN 199)    
1 42917U 17048A   26176.83530382 -.00000337  00000+0  00000+0 0  9999
2 42917   0.0657 150.0925 0002250 300.4876 251.1432  1.00272525 32346
QZS-4 (QZSS/PRN 195)    
1 42965U 17062A   26176.33665515 -.00000360  00000+0  00000+0 0  9996
2 42965  40.1041 343.3808 0746739 268.2453 280.8214  1.00297191 31888
BEIDOU-3 G1 (PRN 130)   
1 43683U 18085A   26176.77055539 -.00000101  00000+0  00000+0 0  9990
2 43683   2.8907  97.1405 0008487 351.2424 262.8490  1.00270920 28143
EUTELSAT 5 WEST B (EGN*)
1 44624U 19067A   26176.73785911 -.00000032  00000+0  00000+0 0  9990
2 44624   0.0622   3.3854 0003398  90.7742  80.3376  1.00271458 24525
BEIDOU-3 G2 (PRN 144)   
1 45344U 20017A   26176.82603044 -.00000133  00000+0  00000+0 0  9995
2 45344   2.8820  47.4925 0002487  37.4477 206.4801  1.00272030 23344
BEIDOU-3 G3 (PRN 143)   
1 45807U 20040A   26176.83209714 -.00000345  00000+0  00000+0 0  9997
2 45807   2.4689  67.4804 0002643 327.3724 289.1907  1.00275033 22154
GALAXY 30 (WAAS/PRN 135)
1 46114U 20056C   26175.71600622  .00000046  00000+0  00000+0 0  9992
2 46114   0.0130  51.5985 0002220  38.3382 315.6757  1.00270732 21366
QZS-1R (QZSS/PRN 196)   
1 49336U 21096A   26176.62087218 -.00000314  00000+0  00000+0 0  9996
2 49336  37.4786  79.4571 0755538 271.9543 279.2646  1.00253341 17091
QZS-6 (QZSS/PRN 200)    
1 62876U 25023A   26176.60391803 -.00000223  00000+0  00000+0 0  9999
2 62876   0.0573 280.3752 0001986 187.0073 114.2719  1.00273214  5036
